[{"OBJECT_NAME":"OBJECT B","OBJECT_ID":"2024-226B","EPOCH":"2026-03-09T23:24:55.641600","MEAN_MOTION":13.41489461,"ECCENTRICITY":0.00118176,"INCLINATION":50.0059,"RA_OF_ASC_NODE":332.3036,"ARG_OF_PERICENTER":131.5157,"MEAN_ANOMALY":228.6736,"EPHEMERIS_TYPE":0,"CLASSIFICATION_TYPE":"U","NORAD_CAT_ID":62186,"ELEMENT_SET_NO":999,"REV_AT_EPOCH":6239,"BSTAR":0.00015119455,"MEAN_MOTION_DOT":-4.4e-7,"MEAN_MOTION_DDOT":0},{"OBJECT_NAME":"HULIANWANG DIGUI-127","OBJECT_ID":"2025-295J","EPOCH":"2026-03-09T09:25:25.978656","MEAN_MOTION":13.4381767,"ECCENTRICITY":4.376e-5,"INCLINATION":50.0052,"RA_OF_ASC_NODE":23.6409,"ARG_OF_PERICENTER":347.3971,"MEAN_ANOMALY":12.6896,"EPHEMERIS_TYPE":0,"CLASSIFICATION_TYPE":"U","NORAD_CAT_ID":67067,"ELEMENT_SET_NO":999,"REV_AT_EPOCH":1222,"BSTAR":-0.00029591952,"MEAN_MOTION_DOT":-3.01e-6,"MEAN_MOTION_DDOT":0}]
